Satellite: AO-10
Catalog number: 14129
Epoch time:      08314.83214155
Element set:    0587
Inclination:      026.0363 deg
RA of node:       186.6926 deg
Eccentricity:    0.5959023
Arg of perigee:   172.1256 deg
Mean anomaly:     204.7554 deg
Mean motion:   02.05869528 rev/day
Decay rate:       -1.0e-07 rev/day^2
Epoch rev:           19110
Checksum:              295

Satellite: UO-11
Catalog number: 14781
Epoch time:      08318.22876649
Element set:     812
Inclination:      098.1393 deg
RA of node:       354.3632 deg
Eccentricity:    0.0008395
Arg of perigee:   318.3018 deg
Mean anomaly:     041.7533 deg
Mean motion:   14.79677007 rev/day
Decay rate:       2.59e-06 rev/day^2
Epoch rev:           32589
Checksum:              330

Satellite: RS-15
Catalog number: 23439
Epoch time:      08316.95150651
Element set:    0164
Inclination:      064.8154 deg
RA of node:       256.1023 deg
Eccentricity:    0.0145684
Arg of perigee:   094.1264 deg
Mean anomaly:     267.6324 deg
Mean motion:   11.27552649 rev/day
Decay rate:       -3.9e-07 rev/day^2
Epoch rev:           57162
Checksum:              306

Satellite: FO-29
Catalog number: 24278
Epoch time:      08316.87870910
Element set:     904
Inclination:      098.5773 deg
RA of node:       213.7672 deg
Eccentricity:    0.0350453
Arg of perigee:   193.0799 deg
Mean anomaly:     166.1074 deg
Mean motion:   13.52939547 rev/day
Decay rate:       -4.4e-07 rev/day^2
Epoch rev:           60436
Checksum:              342

Satellite: SO-33
Catalog number: 25509
Epoch time:      08317.79299660
Element set:     322
Inclination:      031.4335 deg
RA of node:       196.0934 deg
Eccentricity:    0.0355172
Arg of perigee:   246.5219 deg
Mean anomaly:     109.7683 deg
Mean motion:   14.28231382 rev/day
Decay rate:      -1.72e-06 rev/day^2
Epoch rev:           52487
Checksum:              319

Satellite: AO-40
Catalog number: 26609
Epoch time:      08318.43241246
Element set:     151
Inclination:      008.0927 deg
RA of node:       049.4587 deg
Eccentricity:    0.7937357
Arg of perigee:   144.1388 deg
Mean anomaly:     312.4982 deg
Mean motion:   01.25585962 rev/day
Decay rate:      -1.56e-06 rev/day^2
Epoch rev:            3691
Checksum:              327

Satellite: VO-52
Catalog number: 28650
Epoch time:      08317.79319430
Element set:      80
Inclination:      097.7731 deg
RA of node:       020.1869 deg
Eccentricity:    0.0027534
Arg of perigee:   018.3657 deg
Mean anomaly:     341.8538 deg
Mean motion:   14.81518619 rev/day
Decay rate:      -1.47e-06 rev/day^2
Epoch rev:           19060
Checksum:              317

Satellite: PO-63
Catalog number: 29712
Epoch time:      08318.74904193
Element set:     966
Inclination:      097.8591 deg
RA of node:       014.0001 deg
Eccentricity:    0.0013142
Arg of perigee:   255.1713 deg
Mean anomaly:     104.8047 deg
Mean motion:   14.80333406 rev/day
Decay rate:       5.66e-06 rev/day^2
Epoch rev:            9959
Checksum:              303

/EX
SB KEPS @ AMSAT  $ORB08318.D
Orbital Elements  08318.MICROS

HR AMSAT ORBITAL ELEMENTS FOR THE MICROSATS
FROM WA5QGD FORT WORTH,TX November 13, 2008
Send Subscribe/unsubscribe to KEPS at 
http://www.amsat.org/mailman/listinfo/keps
BID: ORB08318.D
TO ALL RADIO AMATEURS BT

Satellite: AO-16
Catalog number: 20439
Epoch time:      08318.47947188
Element set:     462
Inclination:      098.2506 deg
RA of node:       291.0584 deg
Eccentricity:    0.0011884
Arg of perigee:   091.6428 deg
Mean anomaly:     268.6121 deg
Mean motion:   14.31808121 rev/day
Decay rate:        3.0e-07 rev/day^2
Epoch rev:           98228
Checksum:              314

Satellite: LO-19
Catalog number: 20442
Epoch time:      08317.73349068
Element set:     386
Inclination:      098.2161 deg
RA of node:       298.4116 deg
Eccentricity:    0.0012908
Arg of perigee:   091.9420 deg
Mean anomaly:     268.3230 deg
Mean motion:   14.32046102 rev/day
Decay rate:       1.47e-06 rev/day^2
Epoch rev:           98233
Checksum:              295

Satellite: AO-27
Catalog number: 22825
Epoch time:      08317.82582759
Element set:     105
Inclination:      098.4064 deg
RA of node:       272.4251 deg
Eccentricity:    0.0008501
Arg of perigee:   176.4784 deg
Mean anomaly:     183.6452 deg
Mean motion:   14.29252251 rev/day
Decay rate:       1.73e-06 rev/day^2
Epoch rev:           78900
Checksum:              311

Satellite: IO-26
Catalog number: 22826
Epoch time:      08318.55391851
Element set:     820
Inclination:      098.3995 deg
RA of node:       273.9709 deg
Eccentricity:    0.0008903
Arg of perigee:   170.7824 deg
Mean anomaly:     189.3523 deg
Mean motion:   14.29501658 rev/day
Decay rate:        1.8e-07 rev/day^2
Epoch rev:           78920
Checksum:              342

Satellite: GO-32
Catalog number: 25397
Epoch time:      08318.79397184
Element set:     746
Inclination:      098.3500 deg
RA of node:       346.4547 deg
Eccentricity:    0.0001743
Arg of perigee:   133.0344 deg
Mean anomaly:     227.0974 deg
Mean motion:   14.23149814 rev/day
Decay rate:      -1.82e-06 rev/day^2
Epoch rev:           53749
Checksum:              325

Satellite: NO-44
Catalog number: 26931
Epoch time:      08317.81891212
Element set:      24
Inclination:      067.0522 deg
RA of node:       261.7569 deg
Eccentricity:    0.0006806
Arg of perigee:   255.2252 deg
Mean anomaly:     104.8100 deg
Mean motion:   14.29537256 rev/day
Decay rate:      -2.75e-06 rev/day^2
Epoch rev:           37165
Checksum:              292

Satellite: SO-50
Catalog number: 27607
Epoch time:      08318.05837273
Element set:     743
Inclination:      064.5582 deg
RA of node:       321.5073 deg
Eccentricity:    0.0084781
Arg of perigee:   250.5845 deg
Mean anomaly:     108.6077 deg
Mean motion:   14.71394541 rev/day
Decay rate:       -5.0e-07 rev/day^2
Epoch rev:           31687
Checksum:              314

Satellite: CO-55
Catalog number: 27844
Epoch time:      08317.76817534
Element set:     439
Inclination:      098.7173 deg
RA of node:       323.9836 deg
Eccentricity:    0.0010765
Arg of perigee:   050.3399 deg
Mean anomaly:     309.8723 deg
Mean motion:   14.20606112 rev/day
Decay rate:        5.9e-07 rev/day^2
Epoch rev:           27853
Checksum:              333

Satellite: CO-57
Catalog number: 27848
Epoch time:      08317.57499602
Element set:     390
Inclination:      098.7174 deg
RA of node:       322.8658 deg
Eccentricity:    0.0010541
Arg of perigee:   053.9816 deg
Mean anomaly:     306.2344 deg
Mean motion:   14.20412725 rev/day
Decay rate:        2.2e-07 rev/day^2
Epoch rev:           27847
Checksum:              320

Satellite: AO-51
Catalog number: 28375
Epoch time:      08318.58620439
Element set:     243
Inclination:      098.0616 deg
RA of node:       334.6921 deg
Eccentricity:    0.0085182
Arg of perigee:   059.4614 deg
Mean anomaly:     301.4952 deg
Mean motion:   14.40624095 rev/day
Decay rate:        1.5e-07 rev/day^2
Epoch rev:           22991
Checksum:              307

Satellite: CO-56
Catalog number: 28941
Epoch time:      08318.80470968
Element set:     548
Inclination:      098.1203 deg
RA of node:       090.9598 deg
Eccentricity:    0.0140791
Arg of perigee:   214.3998 deg
Mean anomaly:     144.8165 deg
Mean motion:   15.64718383 rev/day
Decay rate:     4.8464e-04 rev/day^2
Epoch rev:           15337
Checksum:              363

Satellite: CP3
Catalog number: 31128
Epoch time:      08317.91064049
Element set:     480
Inclination:      098.0235 deg
RA of node:       014.9224 deg
Eccentricity:    0.0102005
Arg of perigee:   234.4583 deg
Mean anomaly:     124.7073 deg
Mean motion:   14.51989746 rev/day
Decay rate:       -4.8e-07 rev/day^2
Epoch rev:            8351
Checksum:              286

Satellite: CP4
Catalog number: 31132
Epoch time:      08318.16924274
Element set:     458
Inclination:      098.0229 deg
RA of node:       018.0656 deg
Eccentricity:    0.0084905
Arg of perigee:   225.2331 deg
Mean anomaly:     134.1928 deg
Mean motion:   14.55157633 rev/day
Decay rate:       2.80e-06 rev/day^2
Epoch rev:            8361
Checksum:              291

Satellite: CO-65
Catalog number: 32785
Epoch time:      08318.86741468
Element set:     209
Inclination:      097.9770 deg
RA of node:       018.2755 deg
Eccentricity:    0.0015384
Arg of perigee:   015.2316 deg
Mean anomaly:     344.9350 deg
Mean motion:   14.81413989 rev/day
Decay rate:       1.51e-06 rev/day^2
Epoch rev:            2956
Checksum:              332

/EX
SB KEPS @ AMSAT  $ORB08318.W
Orbital Elements  08318.WEATHER

HR AMSAT ORBITAL ELEMENTS FOR WEATHER SATELLITES
FROM WA5QGD FORT WORTH,TX November 13, 2008
Send Subscribe/unsubscribe to KEPS at 
http://www.amsat.org/mailman/listinfo/keps
BID: ORB08318.W
TO ALL RADIO AMATEURS BT

Satellite: NOAA-10
Catalog number: 16969
Epoch time:      08318.46514570
Element set:     367
Inclination:      098.7124 deg
RA of node:       340.0699 deg
Eccentricity:    0.0013002
Arg of perigee:   104.6558 deg
Mean anomaly:     255.6068 deg
Mean motion:   14.27372380 rev/day
Decay rate:       -6.5e-07 rev/day^2
Epoch rev:           15273
Checksum:              307

Satellite: NOAA-11
Catalog number: 19531
Epoch time:      08318.59289622
Element set:     393
Inclination:      098.7949 deg
RA of node:       045.8055 deg
Eccentricity:    0.0011815
Arg of perigee:   006.5149 deg
Mean anomaly:     353.6192 deg
Mean motion:   14.14881471 rev/day
Decay rate:        7.6e-07 rev/day^2
Epoch rev:            3903
Checksum:              320

